{
    "links": {
        "self": "http://www.neowsapp.com/rest/v1/neo/3720865?api_key=iIulBulltgU6a56xZRHN4H3l9WmuAYTsLGpBGhQ2"
    },
    "id": "3720865",
    "neo_reference_id": "3720865",
    "name": "(2015 HN182)",
    "designation": "2015 HN182",
    "nasa_jpl_url": "http://ssd.jpl.nasa.gov/sbdb.cgi?sstr=3720865",
    "absolute_magnitude_h": 22.3,
    "estimated_diameter": {
        "kilometers": {
            "estimated_diameter_min": 0.0921626549,
            "estimated_diameter_max": 0.2060819612
        },
        "meters": {
            "estimated_diameter_min": 92.1626548503,
            "estimated_diameter_max": 206.0819612321
        },
        "miles": {
            "estimated_diameter_min": 0.057267201,
            "estimated_diameter_max": 0.1280533543
        },
        "feet": {
            "estimated_diameter_min": 302.370924539,
            "estimated_diameter_max": 676.1219416887
        }
    },
    "is_potentially_hazardous_asteroid": false,
    "close_approach_data": [
        {
            "close_approach_date": "2014-07-09",
            "close_approach_date_full": "2014-Jul-09 12:06",
            "epoch_date_close_approach": 1404907560000,
            "relative_velocity": {
                "kilometers_per_second": "16.7573640902",
                "kilometers_per_hour": "60326.5107248294",
                "miles_per_hour": "37484.5477334364"
            },
            "miss_distance": {
                "astronomical": "0.3644021485",
                "lunar": "141.7524357665",
                "kilometers": "54513785.239023695",
                "miles": "33873295.421949191"
            },
            "orbiting_body": "Earth"
        },
        {
            "close_approach_date": "2016-02-05",
            "close_approach_date_full": "2016-Feb-05 18:16",
            "epoch_date_close_approach": 1454696160000,
            "relative_velocity": {
                "kilometers_per_second": "13.8169785642",
                "kilometers_per_hour": "49741.1228310829",
                "miles_per_hour": "30907.1993502359"
            },
            "miss_distance": {
                "astronomical": "0.3276089002",
                "lunar": "127.4398621778",
                "kilometers": "49009593.662962574",
                "miles": "30453149.3708645612"
            },
            "orbiting_body": "Earth"
        }
    ],
    "orbital_data": {
        "orbit_id": "3",
        "orbit_determination_date": "2017-04-06 08:33:57",
        "first_observation_date": "2015-04-18",
        "last_observation_date": "2015-04-21",
        "data_arc_in_days": 3,
        "observations_used": 13,
        "orbit_uncertainty": "9",
        "minimum_orbit_intersection": ".318367",
        "jupiter_tisserand_invariant": "5.268",
        "epoch_osculation": "2457131.5",
        "eccentricity": ".4840721264693924",
        "semi_major_axis": "1.157029939676211",
        "inclination": "20.92306286601624",
        "ascending_node_longitude": "12.50460331873302",
        "orbital_period": "454.585231613646",
        "perihelion_distance": ".5969439963883949",
        "perihelion_argument": "13.16311289065191",
        "aphelion_distance": "1.717115882964027",
        "perihelion_time": "2457354.364781988642",
        "mean_anomaly": "183.5065375284781",
        "mean_motion": ".7919306985009262",
        "equinox": "J2000",
        "orbit_class": {
            "orbit_class_type": "APO",
            "orbit_class_description": "Near-Earth asteroid orbits which cross the Earth’s orbit similar to that of 1862 Apollo",
            "orbit_class_range": "a (semi-major axis) > 1.0 AU; q (perihelion) < 1.017 AU"
        }
    },
    "is_sentry_object": false
}